[{"CCSDS_OMM_VERS":"3.0","COMMENT":"GENERATED VIA SPACE-TRACK.ORG API","CREATION_DATE":"2026-06-19T06:47:17","ORIGINATOR":"18 SPCS","OBJECT_NAME":"BEIDOU 3M12","OBJECT_ID":"2018-067B","CENTER_NAME":"EARTH","REF_FRAME":"TEME","TIME_SYSTEM":"UTC","MEAN_ELEMENT_THEORY":"SGP4","EPOCH":"2026-06-18T15:43:03.362592","MEAN_MOTION":"1.86227132","ECCENTRICITY":"0.00044950","INCLINATION":"54.1778","RA_OF_ASC_NODE":"180.9540","ARG_OF_PERICENTER":"12.7503","MEAN_ANOMALY":"347.2821","EPHEMERIS_TYPE":"0","CLASSIFICATION_TYPE":"U","NORAD_CAT_ID":"43603","ELEMENT_SET_NO":"999","REV_AT_EPOCH":"5317","BSTAR":"0.00000000000000","MEAN_MOTION_DOT":"0.00000056","MEAN_MOTION_DDOT":"0.0000000000000","SEMIMAJOR_AXIS":"27906.575","PERIOD":"773.249","APOAPSIS":"21540.984","PERIAPSIS":"21515.896","OBJECT_TYPE":"PAYLOAD","RCS_SIZE":"LARGE","COUNTRY_CODE":"PRC","LAUNCH_DATE":"2018-08-24","SITE":"XSC","DECAY_DATE":null,"FILE":"5255266","GP_ID":"330613382","TLE_LINE0":"0 BEIDOU 3M12","TLE_LINE1":"1 43603U 18067B   26169.65490003  .00000056  00000-0  00000+0 0  9999","TLE_LINE2":"2 43603  54.1778 180.9540 0004495  12.7503 347.2821  1.86227132 53172"},{"CCSDS_OMM_VERS":"3.0","COMMENT":"GENERATED VIA SPACE-TRACK.ORG API","CREATION_DATE":"2026-06-19T17:59:21","ORIGINATOR":"18 SPCS","OBJECT_NAME":"BEIDOU 3M12","OBJECT_ID":"2018-067B","CENTER_NAME":"EARTH","REF_FRAME":"TEME","TIME_SYSTEM":"UTC","MEAN_ELEMENT_THEORY":"SGP4","EPOCH":"2026-06-19T04:36:16.596864","MEAN_MOTION":"1.86227141","ECCENTRICITY":"0.00045037","INCLINATION":"54.1779","RA_OF_ASC_NODE":"180.9358","ARG_OF_PERICENTER":"12.7373","MEAN_ANOMALY":"347.2939","EPHEMERIS_TYPE":"0","CLASSIFICATION_TYPE":"U","NORAD_CAT_ID":"43603","ELEMENT_SET_NO":"999","REV_AT_EPOCH":"5318","BSTAR":"0.00000000000000","MEAN_MOTION_DOT":"0.00000059","MEAN_MOTION_DDOT":"0.0000000000000","SEMIMAJOR_AXIS":"27906.574","PERIOD":"773.249","APOAPSIS":"21541.007","PERIAPSIS":"21515.871","OBJECT_TYPE":"PAYLOAD","RCS_SIZE":"LARGE","COUNTRY_CODE":"PRC","LAUNCH_DATE":"2018-08-24","SITE":"XSC","DECAY_DATE":null,"FILE":"5255921","GP_ID":"330723919","TLE_LINE0":"0 BEIDOU 3M12","TLE_LINE1":"1 43603U 18067B   26170.19185876  .00000059  00000-0  00000-0 0  9993","TLE_LINE2":"2 43603  54.1779 180.9358 0004504  12.7373 347.2939  1.86227141 53187"},{"CCSDS_OMM_VERS":"3.0","COMMENT":"GENERATED VIA SPACE-TRACK.ORG API","CREATION_DATE":"2026-06-19T11:14:33","ORIGINATOR":"18 SPCS","OBJECT_NAME":"BEIDOU 3M12","OBJECT_ID":"2018-067B","CENTER_NAME":"EARTH","REF_FRAME":"TEME","TIME_SYSTEM":"UTC","MEAN_ELEMENT_THEORY":"SGP4","EPOCH":"2026-06-19T04:36:16.596864","MEAN_MOTION":"1.86227141","ECCENTRICITY":"0.00045037","INCLINATION":"54.1779","RA_OF_ASC_NODE":"180.9358","ARG_OF_PERICENTER":"12.7373","MEAN_ANOMALY":"347.2939","EPHEMERIS_TYPE":"0","CLASSIFICATION_TYPE":"U","NORAD_CAT_ID":"43603","ELEMENT_SET_NO":"999","REV_AT_EPOCH":"5318","BSTAR":"0.00000000000000","MEAN_MOTION_DOT":"0.00000059","MEAN_MOTION_DDOT":"0.0000000000000","SEMIMAJOR_AXIS":"27906.574","PERIOD":"773.249","APOAPSIS":"21541.007","PERIAPSIS":"21515.871","OBJECT_TYPE":"PAYLOAD","RCS_SIZE":"LARGE","COUNTRY_CODE":"PRC","LAUNCH_DATE":"2018-08-24","SITE":"XSC","DECAY_DATE":null,"FILE":"5255912","GP_ID":"330688341","TLE_LINE0":"0 BEIDOU 3M12","TLE_LINE1":"1 43603U 18067B   26170.19185876  .00000059  00000-0  00000-0 0  9993","TLE_LINE2":"2 43603  54.1779 180.9358 0004504  12.7373 347.2939  1.86227141 53187"},{"CCSDS_OMM_VERS":"3.0","COMMENT":"GENERATED VIA SPACE-TRACK.ORG API","CREATION_DATE":"2026-06-20T10:42:50","ORIGINATOR":"18 SPCS","OBJECT_NAME":"BEIDOU 3M12","OBJECT_ID":"2018-067B","CENTER_NAME":"EARTH","REF_FRAME":"TEME","TIME_SYSTEM":"UTC","MEAN_ELEMENT_THEORY":"SGP4","EPOCH":"2026-06-19T17:29:29.945184","MEAN_MOTION":"1.86227142","ECCENTRICITY":"0.00045161","INCLINATION":"54.1779","RA_OF_ASC_NODE":"180.9175","ARG_OF_PERICENTER":"12.6622","MEAN_ANOMALY":"347.3686","EPHEMERIS_TYPE":"0","CLASSIFICATION_TYPE":"U","NORAD_CAT_ID":"43603","ELEMENT_SET_NO":"999","REV_AT_EPOCH":"5319","BSTAR":"0.00000000000000","MEAN_MOTION_DOT":"0.00000063","MEAN_MOTION_DDOT":"0.0000000000000","SEMIMAJOR_AXIS":"27906.574","PERIOD":"773.249","APOAPSIS":"21541.042","PERIAPSIS":"21515.836","OBJECT_TYPE":"PAYLOAD","RCS_SIZE":"LARGE","COUNTRY_CODE":"PRC","LAUNCH_DATE":"2018-08-24","SITE":"XSC","DECAY_DATE":null,"FILE":"5256487","GP_ID":"330836771","TLE_LINE0":"0 BEIDOU 3M12","TLE_LINE1":"1 43603U 18067B   26170.72881881  .00000063  00000-0  00000-0 0  9996","TLE_LINE2":"2 43603  54.1779 180.9175 0004516  12.6622 347.3686  1.86227142 53195"},{"CCSDS_OMM_VERS":"3.0","COMMENT":"GENERATED VIA SPACE-TRACK.ORG API","CREATION_DATE":"2026-06-20T15:56:36","ORIGINATOR":"18 SPCS","OBJECT_NAME":"BEIDOU 3M12","OBJECT_ID":"2018-067B","CENTER_NAME":"EARTH","REF_FRAME":"TEME","TIME_SYSTEM":"UTC","MEAN_ELEMENT_THEORY":"SGP4","EPOCH":"2026-06-20T06:22:43.415328","MEAN_MOTION":"1.86227129","ECCENTRICITY":"0.00045170","INCLINATION":"54.1780","RA_OF_ASC_NODE":"180.8993","ARG_OF_PERICENTER":"12.7566","MEAN_ANOMALY":"347.2746","EPHEMERIS_TYPE":"0","CLASSIFICATION_TYPE":"U","NORAD_CAT_ID":"43603","ELEMENT_SET_NO":"999","REV_AT_EPOCH":"5320","BSTAR":"0.00000000000000","MEAN_MOTION_DOT":"0.00000068","MEAN_MOTION_DDOT":"0.0000000000000","SEMIMAJOR_AXIS":"27906.575","PERIOD":"773.249","APOAPSIS":"21541.046","PERIAPSIS":"21515.835","OBJECT_TYPE":"PAYLOAD","RCS_SIZE":"LARGE","COUNTRY_CODE":"PRC","LAUNCH_DATE":"2018-08-24","SITE":"XSC","DECAY_DATE":null,"FILE":"5256733","GP_ID":"330877902","TLE_LINE0":"0 BEIDOU 3M12","TLE_LINE1":"1 43603U 18067B   26171.26578027  .00000068  00000-0  00000+0 0  9995","TLE_LINE2":"2 43603  54.1780 180.8993 0004517  12.7566 347.2746  1.86227129 53206"},{"CCSDS_OMM_VERS":"3.0","COMMENT":"GENERATED VIA SPACE-TRACK.ORG API","CREATION_DATE":"2026-06-24T02:28:56","ORIGINATOR":"18 SPCS","OBJECT_NAME":"BEIDOU 3M12","OBJECT_ID":"2018-067B","CENTER_NAME":"EARTH","REF_FRAME":"TEME","TIME_SYSTEM":"UTC","MEAN_ELEMENT_THEORY":"SGP4","EPOCH":"2026-06-22T09:55:37.560288","MEAN_MOTION":"1.86227153","ECCENTRICITY":"0.00045153","INCLINATION":"54.1780","RA_OF_ASC_NODE":"180.8264","ARG_OF_PERICENTER":"12.6670","MEAN_ANOMALY":"347.3693","EPHEMERIS_TYPE":"0","CLASSIFICATION_TYPE":"U","NORAD_CAT_ID":"43603","ELEMENT_SET_NO":"999","REV_AT_EPOCH":"5324","BSTAR":"0.00000000000000","MEAN_MOTION_DOT":"0.00000093","MEAN_MOTION_DDOT":"0.0000000000000","SEMIMAJOR_AXIS":"27906.573","PERIOD":"773.249","APOAPSIS":"21541.038","PERIAPSIS":"21515.837","OBJECT_TYPE":"PAYLOAD","RCS_SIZE":"LARGE","COUNTRY_CODE":"PRC","LAUNCH_DATE":"2018-08-24","SITE":"XSC","DECAY_DATE":null,"FILE":"5257684","GP_ID":"331031682","TLE_LINE0":"0 BEIDOU 3M12","TLE_LINE1":"1 43603U 18067B   26173.41362917  .00000093  00000-0  00000-0 0  9992","TLE_LINE2":"2 43603  54.1780 180.8264 0004515  12.6670 347.3693  1.86227153 53243"},{"CCSDS_OMM_VERS":"3.0","COMMENT":"GENERATED VIA SPACE-TRACK.ORG API","CREATION_DATE":"2026-06-23T03:40:42","ORIGINATOR":"18 SPCS","OBJECT_NAME":"BEIDOU 3M12","OBJECT_ID":"2018-067B","CENTER_NAME":"EARTH","REF_FRAME":"TEME","TIME_SYSTEM":"UTC","MEAN_ELEMENT_THEORY":"SGP4","EPOCH":"2026-06-22T09:55:37.560288","MEAN_MOTION":"1.86227153","ECCENTRICITY":"0.00045153","INCLINATION":"54.1780","RA_OF_ASC_NODE":"180.8264","ARG_OF_PERICENTER":"12.6670","MEAN_ANOMALY":"347.3693","EPHEMERIS_TYPE":"0","CLASSIFICATION_TYPE":"U","NORAD_CAT_ID":"43603","ELEMENT_SET_NO":"999","REV_AT_EPOCH":"5324","BSTAR":"0.00000000000000","MEAN_MOTION_DOT":"0.00000093","MEAN_MOTION_DDOT":"0.0000000000000","SEMIMAJOR_AXIS":"27906.573","PERIOD":"773.249","APOAPSIS":"21541.038","PERIAPSIS":"21515.837","OBJECT_TYPE":"PAYLOAD","RCS_SIZE":"LARGE","COUNTRY_CODE":"PRC","LAUNCH_DATE":"2018-08-24","SITE":"XSC","DECAY_DATE":null,"FILE":"5257616","GP_ID":"330962490","TLE_LINE0":"0 BEIDOU 3M12","TLE_LINE1":"1 43603U 18067B   26173.41362917  .00000093  00000-0  00000-0 0  9992","TLE_LINE2":"2 43603  54.1780 180.8264 0004515  12.6670 347.3693  1.86227153 53243"}]